{
  "norad_id": 62214,
  "name": "STARLINK-32666",
  "history": [
    {
      "epoch": "2026-03-28T21:24:14.894784Z",
      "apogee_km": 483.4665826570463,
      "perigee_km": 482.6542168849137,
      "latitude_deg": 4.365398137492806e-05,
      "longitude_deg": 15.277612350295415,
      "height_km": 482.45500648504594,
      "semi_major_axis_km": 6861.19739977098,
      "eccentricity": 5.92e-05,
      "inclination_deg": 42.9949,
      "raan_deg": 162.6454,
      "arg_perigee_deg": 20.6584,
      "mean_anomaly_deg": 339.4292,
      "mean_motion_rev_day": 15.27576225
    },
    {
      "epoch": "2026-03-28T21:24:14.895648Z",
      "apogee_km": 483.4663768211258,
      "perigee_km": 482.654422720836,
      "latitude_deg": 4.448321746861802e-05,
      "longitude_deg": 15.277609624929,
      "height_km": 482.45519905905263,
      "semi_major_axis_km": 6861.19739977098,
      "eccentricity": 5.917e-05,
      "inclination_deg": 42.9949,
      "raan_deg": 162.6454,
      "arg_perigee_deg": 20.6584,
      "mean_anomaly_deg": 339.4292,
      "mean_motion_rev_day": 15.27576225
    },
    {
      "epoch": "2026-03-30T12:38:09.384864Z",
      "apogee_km": 483.90167990648024,
      "perigee_km": 482.09075240540824,
      "latitude_deg": 4.346267233051337e-05,
      "longitude_deg": 135.96097832964702,
      "height_km": 482.7967685342677,
      "semi_major_axis_km": 6861.133216155944,
      "eccentricity": 0.00013197,
      "inclination_deg": 42.9957,
      "raan_deg": 153.417,
      "arg_perigee_deg": 268.4554,
      "mean_anomaly_deg": 91.6147,
      "mean_motion_rev_day": 15.2759766
    },
    {
      "epoch": "2026-03-30T20:28:56.390880Z",
      "apogee_km": 483.67179150346874,
      "perigee_km": 482.36638794583723,
      "latitude_deg": 1.0499785002099334e-06,
      "longitude_deg": 16.092435259826917,
      "height_km": 482.63264002728476,
      "semi_major_axis_km": 6861.156089724653,
      "eccentricity": 9.513e-05,
      "inclination_deg": 42.9993,
      "raan_deg": 151.5666,
      "arg_perigee_deg": 284.4329,
      "mean_anomaly_deg": 75.6417,
      "mean_motion_rev_day": 15.27590021
    },
    {
      "epoch": "2026-03-31T10:36:20.572992Z",
      "apogee_km": 483.92010765641135,
      "perigee_km": 482.08214597500046,
      "latitude_deg": -2.5987180031518627e-05,
      "longitude_deg": 160.3398216485137,
      "height_km": 482.96519380749373,
      "semi_major_axis_km": 6861.138126815706,
      "eccentricity": 0.00013394,
      "inclination_deg": 42.9998,
      "raan_deg": 148.2448,
      "arg_perigee_deg": 258.2281,
      "mean_anomaly_deg": 101.842,
      "mean_motion_rev_day": 15.2759602
    },
    {
      "epoch": "2026-04-01T03:52:04.034784Z",
      "apogee_km": 484.49765356344415,
      "perigee_km": 481.5267759534536,
      "latitude_deg": 4.815096327521903e-05,
      "longitude_deg": -103.36411724053512,
      "height_km": 482.66922366213765,
      "semi_major_axis_km": 6861.149214758449,
      "eccentricity": 0.0002165,
      "inclination_deg": 42.9998,
      "raan_deg": 144.1808,
      "arg_perigee_deg": 274.6441,
      "mean_anomaly_deg": 85.4164,
      "mean_motion_rev_day": 15.27592317
    },
    {
      "epoch": "2026-04-02T19:05:58.316640Z",
      "apogee_km": 483.61537616237365,
      "perigee_km": 482.41879089020676,
      "latitude_deg": 1.4169147812522802e-05,
      "longitude_deg": 17.31648319610046,
      "height_km": 482.75960829285685,
      "semi_major_axis_km": 6861.1540835262895,
      "eccentricity": 8.72e-05,
      "inclination_deg": 42.998,
      "raan_deg": 134.9488,
      "arg_perigee_deg": 273.2097,
      "mean_anomaly_deg": 86.8655,
      "mean_motion_rev_day": 15.27590691
    },
    {
      "epoch": "2026-04-02T19:05:58.317504Z",
      "apogee_km": 483.615238939291,
      "perigee_km": 482.41892811328853,
      "latitude_deg": 1.2599163117476404e-05,
      "longitude_deg": 17.31647791182702,
      "height_km": 482.7596159748277,
      "semi_major_axis_km": 6861.1540835262895,
      "eccentricity": 8.718e-05,
      "inclination_deg": 42.998,
      "raan_deg": 134.9488,
      "arg_perigee_deg": 273.2097,
      "mean_anomaly_deg": 86.8655,
      "mean_motion_rev_day": 15.27590691
    },
    {
      "epoch": "2026-04-03T02:56:44.989152Z",
      "apogee_km": 483.08955152710314,
      "perigee_km": 482.7518502670646,
      "latitude_deg": -2.260163129906052e-05,
      "longitude_deg": -102.54396069316654,
      "height_km": 482.7954760474327,
      "semi_major_axis_km": 6861.057700897083,
      "eccentricity": 2.461e-05,
      "inclination_deg": 42.9974,
      "raan_deg": 133.1051,
      "arg_perigee_deg": 126.2644,
      "mean_anomaly_deg": 233.823,
      "mean_motion_rev_day": 15.2762288
    },
    {
      "epoch": "2026-04-04T11:54:02.913984Z",
      "apogee_km": 484.1329898070053,
      "perigee_km": 482.053350942364,
      "latitude_deg": -8.292435455010378e-06,
      "longitude_deg": 114.0214543307224,
      "height_km": 482.9179789610337,
      "semi_major_axis_km": 6861.230170374684,
      "eccentricity": 0.00015155,
      "inclination_deg": 43.0,
      "raan_deg": 125.3486,
      "arg_perigee_deg": 267.3532,
      "mean_anomaly_deg": 92.7146,
      "mean_motion_rev_day": 15.27565281
    },
    {
      "epoch": "2026-04-05T11:26:24.298368Z",
      "apogee_km": 484.23091684238807,
      "perigee_km": 481.9049683668454,
      "latitude_deg": 1.4271257875701258e-05,
      "longitude_deg": 114.42665185085849,
      "height_km": 482.7680794652677,
      "semi_major_axis_km": 6861.204942604617,
      "eccentricity": 0.0001695,
      "inclination_deg": 43.0013,
      "raan_deg": 119.8096,
      "arg_perigee_deg": 273.7941,
      "mean_anomaly_deg": 86.2717,
      "mean_motion_rev_day": 15.27573706
    },
    {
      "epoch": "2026-04-06T01:33:49.299552Z",
      "apogee_km": 483.8614608683956,
      "perigee_km": 482.20764407738716,
      "latitude_deg": 6.949047332460607e-06,
      "longitude_deg": -101.33136476734619,
      "height_km": 482.74678177482,
      "semi_major_axis_km": 6861.171552472891,
      "eccentricity": 0.00012052,
      "inclination_deg": 43.0001,
      "raan_deg": 116.4858,
      "arg_perigee_deg": 274.4615,
      "mean_anomaly_deg": 85.6099,
      "mean_motion_rev_day": 15.27584857
    },
    {
      "epoch": "2026-04-07T01:06:09.571968Z",
      "apogee_km": 483.6740915823166,
      "perigee_km": 482.2740132609597,
      "latitude_deg": -1.759722577178805e-05,
      "longitude_deg": -100.92257272303918,
      "height_km": 482.96312394436967,
      "semi_major_axis_km": 6861.111052421637,
      "eccentricity": 0.00010203,
      "inclination_deg": 42.9996,
      "raan_deg": 110.9458,
      "arg_perigee_deg": 252.302,
      "mean_anomaly_deg": 107.772,
      "mean_motion_rev_day": 15.27605062
    },
    {
      "epoch": "2026-04-08T08:29:16.681920Z",
      "apogee_km": 484.11717756884445,
      "perigee_km": 481.9279187802131,
      "latitude_deg": -2.8188108997307292e-05,
      "longitude_deg": 139.62313847987284,
      "height_km": 482.944829873774,
      "semi_major_axis_km": 6861.159548174528,
      "eccentricity": 0.00015954,
      "inclination_deg": 42.9987,
      "raan_deg": 103.5601,
      "arg_perigee_deg": 262.3565,
      "mean_anomaly_deg": 97.7105,
      "mean_motion_rev_day": 15.27588866
    },
    {
      "epoch": "2026-04-09T00:10:50.635200Z",
      "apogee_km": 483.778724130877,
      "perigee_km": 482.22851801895104,
      "latitude_deg": 4.1199945888810965e-05,
      "longitude_deg": -100.10504048556953,
      "height_km": 482.8296421694254,
      "semi_major_axis_km": 6861.140621074914,
      "eccentricity": 0.00011297,
      "inclination_deg": 42.9985,
      "raan_deg": 99.8678,
      "arg_perigee_deg": 266.3214,
      "mean_anomaly_deg": 93.7509,
      "mean_motion_rev_day": 15.27595187
    },
    {
      "epoch": "2026-04-10T05:59:48.713568Z",
      "apogee_km": 484.01562026972715,
      "perigee_km": 482.0171035184758,
      "latitude_deg": -4.540126659686246e-05,
      "longitude_deg": 164.41376541018678,
      "height_km": 482.9435560574494,
      "semi_major_axis_km": 6861.153361894101,
      "eccentricity": 0.00014564,
      "inclination_deg": 43.0016,
      "raan_deg": 92.8532,
      "arg_perigee_deg": 261.3493,
      "mean_anomaly_deg": 98.7193,
      "mean_motion_rev_day": 15.27590932
    },
    {
      "epoch": "2026-04-11T07:06:18.946368Z",
      "apogee_km": 484.1752122095586,
      "perigee_km": 481.8094948084681,
      "latitude_deg": 8.588756603009943e-07,
      "longitude_deg": 140.84797722596727,
      "height_km": 482.88186051483666,
      "semi_major_axis_km": 6861.129353509013,
      "eccentricity": 0.0001724,
      "inclination_deg": 43.0016,
      "raan_deg": 86.9445,
      "arg_perigee_deg": 264.5478,
      "mean_anomaly_deg": 95.5177,
      "mean_motion_rev_day": 15.2759895
    },
    {
      "epoch": "2026-04-13T06:11:00.920256Z",
      "apogee_km": 484.09607085863354,
      "perigee_km": 481.97898684601114,
      "latitude_deg": 2.9352663044175384e-06,
      "longitude_deg": 141.66164863613784,
      "height_km": 482.772183485712,
      "semi_major_axis_km": 6861.174528852322,
      "eccentricity": 0.00015428,
      "inclination_deg": 43.0012,
      "raan_deg": 75.8665,
      "arg_perigee_deg": 272.2903,
      "mean_anomaly_deg": 87.7772,
      "mean_motion_rev_day": 15.27583863
    },
    {
      "epoch": "2026-04-14T21:24:55.621152Z",
      "apogee_km": 483.81359593468187,
      "perigee_km": 482.239645000147,
      "latitude_deg": -4.8406643702615394e-06,
      "longitude_deg": -97.65837356731205,
      "height_km": 482.8938685638991,
      "semi_major_axis_km": 6861.163620467414,
      "eccentricity": 0.0001147,
      "inclination_deg": 43.001,
      "raan_deg": 66.6356,
      "arg_perigee_deg": 263.3842,
      "mean_anomaly_deg": 96.6879,
      "mean_motion_rev_day": 15.27587506
    }
  ]
}